STARLINK-31449          
1 58966U 24031B   25340.78530917 -.00000297  00000+0  21068-5 0  9998
2 58966  53.1601   7.9090 0001226 102.6054 257.5084 15.30193169102312
STARLINK-31314          
1 58967U 24031C   25340.79164018  .00002561  00000+0  98603-4 0  9998
2 58967  53.1625   7.9443 0001484 118.6501 241.4649 15.30191231102318
STARLINK-31356          
1 58968U 24031D   25340.29489630 -.00000311  00000+0  16114-5 0  9994
2 58968  53.1628 342.6539 0000464  53.8316 306.2728 15.30193447102621
STARLINK-31335          
1 58969U 24031E   25340.49922712  .00001783  00000+0  72265-4 0  9991
2 58969  53.1617   6.8368 0001738  90.2935 269.8265 15.30219830102306
STARLINK-31368          
1 58970U 24031F   25340.46401264  .00001091  00000+0  48968-4 0  9999
2 58970  53.1622   9.4624 0001700  80.5218 279.5975 15.30197505102268
STARLINK-31333          
1 58971U 24031G   25340.77220234  .00007409  00000+0  26196-3 0  9997
2 58971  53.1617 355.7482 0001325  99.4779 260.6371 15.30209773102482
STARLINK-31351          
1 58972U 24031H   25340.80852871  .00006448  00000+0  22964-3 0  9991
2 58972  53.1615   8.0474 0001551  97.0646 263.0531 15.30200003102301
STARLINK-31365          
1 58973U 24031J   25340.81485507  .00001309  00000+0  56344-4 0  9992
2 58973  53.1611   8.0873 0001858  72.8318 287.2886 15.30196594102319
STARLINK-31361          
1 58974U 24031K   25340.81168804  .00002579  00000+0  99198-4 0  9995
2 58974  53.1614   8.0676 0001726  91.0269 269.0930 15.30197725102311
STARLINK-31369          
1 58975U 24031L   25340.81801940  .00001152  00000+0  51014-4 0  9992
2 58975  53.1627   8.1075 0001681  76.8151 283.3038 15.30197438102297
STARLINK-31324          
1 58976U 24031M   25340.36398282  .00001405  00000+0  59555-4 0  9992
2 58976  53.1627  10.2494 0001479  98.3818 261.7351 15.30197205102224
STARLINK-31358          
1 58977U 24031N   25340.52721623 -.00000439  00000+0 -26823-5 0  9991
2 58977  53.1612   9.1238 0001692  76.8371 283.2819 15.30190854102258
STARLINK-31355          
1 58978U 24031P   25340.49777964  .00004833  00000+0  17518-3 0  9996
2 58978  53.1608   9.6611 0001314  90.3556 269.7595 15.30200606102247
STARLINK-31380          
1 58979U 24031Q   25340.37031278  .00001497  00000+0  62673-4 0  9991
2 58979  53.1623  10.2883 0001461 101.5782 258.5383 15.30199263102228
STARLINK-31353          
1 58980U 24031R   25340.49883448  .00001269  00000+0  54952-4 0  9998
2 58980  53.1617   9.6703 0001166  76.4845 283.6286 15.30199527102244
STARLINK-31339          
1 58981U 24031S   25340.37348615  .00008679  00000+0  30482-3 0  9991
2 58981  53.1591  10.3078 0001257  99.1759 260.9384 15.30197928102225
STARLINK-31384          
1 58983U 24031U   25340.37980320  .00005101  00000+0  18417-3 0  9999
2 58983  53.1599  10.3464 0001252  83.8150 276.2994 15.30208701102223
STARLINK-31379          
1 58984U 24031V   25340.77592395  .00001571  00000+0  65163-4 0  9993
2 58984  53.1602   8.5467 0001401  72.8713 287.2441 15.30190635102281
STARLINK-31385          
1 58985U 24031W   25340.35922737 -.00000519  00000+0 -53859-5 0  9998
2 58985  53.1620   8.0493 0001311  98.6666 261.4483 15.30202085102259
STARLINK-31229          
1 58986U 24031X   25340.78225163 -.00000127  00000+0  78478-5 0  9993
2 58986  53.1604   8.5896 0001355 109.8449 250.2698 15.30197201102286
CE-SAT-IE               
1 58987U 24032A   25340.70660821  .00001043  00000+0  19012-3 0  9995
2 58987  98.0269  34.4374 0002428   1.1904 358.9307 14.68054332 96599
TIRSAT                  
1 58989U 24032C   25340.89655305  .00002961  00000+0  48130-3 0  9991
2 58989  98.0254  37.0904 0005851  52.4522 307.7216 14.71834098 96793
INSAT-3DS               
1 58990U 24033A   25340.87100799 -.00000150  00000+0  00000+0 0  9993
2 58990   0.0090  25.8708 0001731 237.7213 207.9664  1.00269653 45149
ADRAS-J                 
1 58992U 24034A   25340.95067907  .00005150  00000+0  40477-3 0  9998
2 58992  98.2384 349.3967 0031313  66.5280 293.9228 15.00977178 98375
MERAH PUTIH 2           
1 58995U 24035A   25339.87197500 -.00000348  00000+0  00000+0 0  9993
2 58995   0.0167 328.0741 0001509 284.4409 249.2663  1.00272214  6651
AAC-AIS-SAT3            
1 58997U 23174DJ  25340.90668980  .00008236  00000+0  10169-2 0  9992
2 58997  97.6518  32.7765 0005763 223.6598 136.4161 14.83071086112635
STARLINK-31468          
1 58998U 24036A   25340.78836299 -.00004504  00000+0 -13997-3 0  9996
2 58998  53.1612 149.3752 0001268 109.7821 250.3316 15.30215131101111
STARLINK-31440          
1 58999U 24036B   25340.79047151  .00001687  00000+0  69084-4 0  9995
2 58999  53.1611 149.3788 0001241  99.2868 260.8274 15.30190811100299
STARLINK-31529          
1 59000U 24036C   25340.87319539  .00002166  00000+0  85251-4 0  9997
2 59000  53.1606 147.0605 0001087  91.0780 269.0345 15.30195114101068
STARLINK-31431          
1 59002U 24036E   25340.76947919  .00001954  00000+0  78101-4 0  9996
2 59002  53.1591 149.9554 0000925  81.2984 278.8121 15.30193414101098
STARLINK-31435          
1 59004U 24036G   25340.79152628 -.00000184  00000+0  58980-5 0  9995
2 59004  53.1609 149.3831 0000902 108.8823 251.2276 15.30196657101116
STARLINK-31484          
1 59005U 24036H   25340.86000968  .00004251  00000+0  15559-3 0  9994
2 59005  53.1602 149.1000 0001213  92.3543 267.7596 15.30196259101113
STARLINK-31450          
1 59006U 24036J   25340.86740727  .00000541  00000+0  30421-4 0  9993
2 59006  53.1586 149.1436 0001515  94.0784 266.0390 15.30175576101112
STARLINK-31456          
1 59007U 24036K   25340.86317150  .00003572  00000+0  13269-3 0  9991
2 59007  53.1608 149.1194 0001236  88.2388 271.8754 15.30194772101111
STARLINK-31460          
1 59008U 24036L   25340.76210349  .00007244  00000+0  25648-3 0  9997
2 59008  53.1592 149.9111 0001203  83.9080 276.2058 15.30198888101091
STARLINK-31488          
1 59009U 24036M   25340.85895366  .00001015  00000+0  46410-4 0  9997
2 59009  53.1599 149.0915 0001088 109.7170 250.3948 15.30187348101113
STARLINK-31528          
1 59010U 24036N   25340.91382808  .00007374  00000+0  26084-3 0  9996
2 59010  53.1579 149.4316 0001202  88.5534 271.5604 15.30200070101110
STARLINK-31491          
1 59011U 24036P   25340.84957243  .00002261  00000+0  88474-4 0  9992
2 59011  53.1601 149.7421 0001222  92.9798 267.1343 15.30193342101103
STARLINK-31465          
1 59012U 24036Q   25340.77897933  .00003255  00000+0  12202-3 0  9993
2 59012  53.1603 150.0100 0001537  51.4403 308.6735 15.30184568101091
STARLINK-31389          
1 59013U 24036R   25340.71683088  .00002138  00000+0  84343-4 0  9997
2 59013  53.1600 150.3346 0001380  59.4593 300.6544 15.30186417101093
STARLINK-31454          
1 59014U 24036S   25340.84112399  .00001909  00000+0  76579-4 0  9991
2 59014  53.1603 149.6858 0001016  81.5896 278.5220 15.30193504101105
STARLINK-31521          
1 59015U 24036T   25340.90538365  .00002243  00000+0  87846-4 0  9995
2 59015  53.1601 149.3761 0001106  85.1842 274.9285 15.30192282101119
STARLINK-31526          
1 59016U 24036U   25340.70938728  .00000516  00000+0  29557-4 0  9997
2 59016  53.1612 124.6743 0001229  97.9838 262.1303 15.30183959101447
STARLINK-31406          
1 59017U 24036V   25340.71299353  .00001516  00000+0  63293-4 0  9999
2 59017  53.1614 136.8238 0001142  79.6797 280.4332 15.30194001101275
STARLINK-31527          
1 59018U 24036W   25340.89589089  .00003431  00000+0  12792-3 0  9992
2 59018  53.1591 149.3226 0001127  67.4289 292.6831 15.30193313101117
STARLINK-31436          
1 59019U 24036X   25340.85061994  .00001841  00000+0  74295-4 0  9999
2 59019  53.1603 149.7452 0001248 101.9025 258.2116 15.30193381101101
TJS-11                  
1 59020U 24037A   25340.58531961 -.00000362  00000+0  00000+0 0  9994
2 59020   4.4656 324.8663 0005701 327.1550 114.5325  1.00275850  6657
STARLINK-30996          
1 59023U 24038A   25340.94460684 -.00027594  00000+0 -99525-3 0  9992
2 59023  42.9998 190.8259 0002105 256.8503 103.2114 15.27634050101943
STARLINK-31006          
1 59024U 24038B   25340.86004853  .00002539  00000+0  10177-3 0  9992
2 59024  43.0000 140.8564 0001554 267.3089  92.7585 15.27580709101144
STARLINK-31178          
1 59025U 24038C   25340.95492656  .00002214  00000+0  89922-4 0  9990
2 59025  43.0001 190.9041 0000885 271.4309  88.6442 15.27588859100463
STARLINK-31227          
1 59026U 24038D   25340.93438745  .00004819  00000+0  18467-3 0  9996
2 59026  43.0013 190.7486 0001434 284.5083  75.5610 15.27555656100576
STARLINK-30863          
1 59027U 24038E   25340.64980379 -.00026416  00000+0 -95247-3 0  9990
2 59027  43.0015 192.8962 0001413 283.5008  76.5686 15.27626008100411
STARLINK-31206          
1 59028U 24038F   25340.69517745  .00001309  00000+0  57068-4 0  9991
2 59028  43.0013 127.1965 0001263 254.6054 105.4658 15.27587239101309
STARLINK-31224          
1 59029U 24038G   25340.92665821  .00005368  00000+0  20446-3 0  9995
2 59029  43.0004 190.6903 0001257 274.8439  85.2269 15.27575433100575
STARLINK-31186          
1 59030U 24038H   25340.89338642  .00002121  00000+0  86577-4 0  9993
2 59030  43.0006 191.2995 0001622 277.4518  82.6149 15.27577791100566
STARLINK-31211          
1 59031U 24038J   25340.92152105  .00006521  00000+0  24631-3 0  9996
2 59031  43.0002 190.6511 0001287 250.9718 109.0994 15.27576438100463
STARLINK-30862          
1 59032U 24038K   25340.90370279  .00010724  00000+0  39827-3 0  9992
2 59032  42.9980 180.1769 0001637 265.8792  94.1873 15.27611949100582
STARLINK-31210          
1 59033U 24038L   25340.62077258  .00001451  00000+0  62277-4 0  9996
2 59033  42.9999 189.2492 0001592 269.3892  90.6777 15.27571583100624
STARLINK-31231          
1 59034U 24038M   25340.87847101  .00002326  00000+0  94058-4 0  9990
2 59034  42.9989 187.7421 0001831 278.1521  81.9123 15.27571589100491
